{
  "type": "FeatureCollection",
  "features": [
    {
      "type": "Feature",
      "properties": {
        "norad_id": 34572,
        "name": "COSMOS 2251 DEB",
        "group": "cosmos-2251-debris",
        "lat": -52.88731715336399,
        "lon": 66.53021435440768,
        "alt_km": 766.5831833137499,
        "timestamp": "2025-12-26T22:28:06.180114+00:00",
        "meta_object_name": "COSMOS 2251 DEB",
        "meta_object_id": "1993-036VJ",
        "meta_epoch": "2025-12-24T06:18:12.267936",
        "meta_mean_motion": 14.50228885,
        "meta_eccentricity": 0.00614008,
        "meta_inclination": 74.0107,
        "meta_ra_of_asc_node": 93.8275,
        "meta_arg_of_pericenter": 165.5586,
        "meta_mean_anomaly": 225.3704,
        "meta_ephemeris_type": 0,
        "meta_classification_type": "U",
        "meta_norad_cat_id": 34572,
        "meta_element_set_no": 999,
        "meta_rev_at_epoch": 87545,
        "meta_bstar": 0.0025670587,
        "meta_mean_motion_dot": 0.00010221,
        "meta_mean_motion_ddot": 0,
        "tle_line1": "1 34572U 93036VJ  25358.26264199  .00010221  00000+0  25671-2 0  9992",
        "tle_line2": "2 34572  74.0107  93.8275 0061400 165.5586 225.3704 14.50228885875458"
      },
      "geometry": {
        "type": "Point",
        "coordinates": [
          66.53021435440768,
          -52.88731715336399
        ]
      }
    },
    {
      "type": "Feature",
      "properties": {
        "norad_id": 34574,
        "name": "COSMOS 2251 DEB",
        "group": "cosmos-2251-debris",
        "lat": 19.431208691537933,
        "lon": -170.15227063423598,
        "alt_km": 687.0672206277586,
        "timestamp": "2025-12-26T22:28:06.180124+00:00",
        "meta_object_name": "COSMOS 2251 DEB",
        "meta_object_id": "1993-036VL",
        "meta_epoch": "2025-12-26T10:52:26.398848",
        "meta_mean_motion": 14.70754165,
        "meta_eccentricity": 0.0067304,
        "meta_inclination": 74.0693,
        "meta_ra_of_asc_node": 16.5662,
        "meta_arg_of_pericenter": 33.2601,
        "meta_mean_anomaly": 88.9644,
        "meta_ephemeris_type": 0,
        "meta_classification_type": "U",
        "meta_norad_cat_id": 34574,
        "meta_element_set_no": 999,
        "meta_rev_at_epoch": 88980,
        "meta_bstar": 0.0010262,
        "meta_mean_motion_dot": 6.458e-05,
        "meta_mean_motion_ddot": 0,
        "tle_line1": "1 34574U 93036VL  25360.45308332  .00006458  00000+0  10262-2 0  9993",
        "tle_line2": "2 34574  74.0693  16.5662 0067304  33.2601  88.9644 14.70754165889807"
      },
      "geometry": {
        "type": "Point",
        "coordinates": [
          -170.15227063423598,
          19.431208691537933
        ]
      }
    },
    {
      "type": "Feature",
      "properties": {
        "norad_id": 34576,
        "name": "COSMOS 2251 DEB",
        "group": "cosmos-2251-debris",
        "lat": 66.33143064394585,
        "lon": 152.0811676157502,
        "alt_km": 706.6995707337928,
        "timestamp": "2025-12-26T22:28:06.180162+00:00",
        "meta_object_name": "COSMOS 2251 DEB",
        "meta_object_id": "1993-036VN",
        "meta_epoch": "2025-12-26T13:57:01.448064",
        "meta_mean_motion": 14.55523592,
        "meta_eccentricity": 0.0008281,
        "meta_inclination": 74.034,
        "meta_ra_of_asc_node": 111.9728,
        "meta_arg_of_pericenter": 250.7491,
        "meta_mean_anomaly": 122.631,
        "meta_ephemeris_type": 0,
        "meta_classification_type": "U",
        "meta_norad_cat_id": 34576,
        "meta_element_set_no": 999,
        "meta_rev_at_epoch": 88668,
        "meta_bstar": 0.00095142,
        "meta_mean_motion_dot": 4.119e-05,
        "meta_mean_motion_ddot": 0,
        "tle_line1": "1 34576U 93036VN  25360.58126676  .00004119  00000+0  95142-3 0  9991",
        "tle_line2": "2 34576  74.0340 111.9728 0008281 250.7491 122.6310 14.55523592886683"
      },
      "geometry": {
        "type": "Point",
        "coordinates": [
          152.0811676157502,
          66.33143064394585
        ]
      }
    },
    {
      "type": "Feature",
      "properties": {
        "norad_id": 34579,
        "name": "COSMOS 2251 DEB",
        "group": "cosmos-2251-debris",
        "lat": 45.43313525894736,
        "lon": 0.5858913078281197,
        "alt_km": 749.6267941578672,
        "timestamp": "2025-12-26T22:28:06.180185+00:00",
        "meta_object_name": "COSMOS 2251 DEB",
        "meta_object_id": "1993-036VR",
        "meta_epoch": "2025-12-25T23:10:11.209728",
        "meta_mean_motion": 14.45342439,
        "meta_eccentricity": 0.0027488,
        "meta_inclination": 74.0512,
        "meta_ra_of_asc_node": 199.27,
        "meta_arg_of_pericenter": 265.93,
        "meta_mean_anomaly": 217.2957,
        "meta_ephemeris_type": 0,
        "meta_classification_type": "U",
        "meta_norad_cat_id": 34579,
        "meta_element_set_no": 999,
        "meta_rev_at_epoch": 88365,
        "meta_bstar": 0.0003564,
        "meta_mean_motion_dot": 1.231e-05,
        "meta_mean_motion_ddot": 0,
        "tle_line1": "1 34579U 93036VR  25359.96540752  .00001231  00000+0  35640-3 0  9998",
        "tle_line2": "2 34579  74.0512 199.2700 0027488 265.9300 217.2957 14.45342439883653"
      },
      "geometry": {
        "type": "Point",
        "coordinates": [
          0.5858913078281197,
          45.43313525894736
        ]
      }
    },
    {
      "type": "Feature",
      "properties": {
        "norad_id": 34582,
        "name": "COSMOS 2251 DEB",
        "group": "cosmos-2251-debris",
        "lat": -28.87968839366949,
        "lon": -123.11875386860575,
        "alt_km": 720.955681048551,
        "timestamp": "2025-12-26T22:28:06.180198+00:00",
        "meta_object_name": "COSMOS 2251 DEB",
        "meta_object_id": "1993-036VU",
        "meta_epoch": "2025-12-26T17:36:58.399200",
        "meta_mean_motion": 14.43392493,
        "meta_eccentricity": 0.0048576,
        "meta_inclination": 74.0188,
        "meta_ra_of_asc_node": 246.3518,
        "meta_arg_of_pericenter": 353.4787,
        "meta_mean_anomaly": 6.573,
        "meta_ephemeris_type": 0,
        "meta_classification_type": "U",
        "meta_norad_cat_id": 34582,
        "meta_element_set_no": 999,
        "meta_rev_at_epoch": 88149,
        "meta_bstar": 0.00064905,
        "meta_mean_motion_dot": 2.196e-05,
        "meta_mean_motion_ddot": 0,
        "tle_line1": "1 34582U 93036VU  25360.73400925  .00002196  00000+0  64905-3 0  9993",
        "tle_line2": "2 34582  74.0188 246.3518 0048576 353.4787   6.5730 14.43392493881491"
      },
      "geometry": {
        "type": "Point",
        "coordinates": [
          -123.11875386860575,
          -28.87968839366949
        ]
      }
    },
    {
      "type": "Feature",
      "properties": {
        "norad_id": 34588,
        "name": "COSMOS 2251 DEB",
        "group": "cosmos-2251-debris",
        "lat": -40.32968757473668,
        "lon": -132.10910373243877,
        "alt_km": 745.3430324845167,
        "timestamp": "2025-12-26T22:28:06.180210+00:00",
        "meta_object_name": "COSMOS 2251 DEB",
        "meta_object_id": "1993-036WA",
        "meta_epoch": "2025-12-26T16:09:23.908896",
        "meta_mean_motion": 14.42060848,
        "meta_eccentricity": 0.001931,
        "meta_inclination": 74.0422,
        "meta_ra_of_asc_node": 242.4367,
        "meta_arg_of_pericenter": 293.7086,
        "meta_mean_anomaly": 99.2441,
        "meta_ephemeris_type": 0,
        "meta_classification_type": "U",
        "meta_norad_cat_id": 34588,
        "meta_element_set_no": 999,
        "meta_rev_at_epoch": 88151,
        "meta_bstar": 0.00041386,
        "meta_mean_motion_dot": 1.336e-05,
        "meta_mean_motion_ddot": 0,
        "tle_line1": "1 34588U 93036WA  25360.67319339  .00001336  00000+0  41386-3 0  9993",
        "tle_line2": "2 34588  74.0422 242.4367 0019310 293.7086  99.2441 14.42060848881515"
      },
      "geometry": {
        "type": "Point",
        "coordinates": [
          -132.10910373243877,
          -40.32968757473668
        ]
      }
    },
    {
      "type": "Feature",
      "properties": {
        "norad_id": 34589,
        "name": "COSMOS 2251 DEB",
        "group": "cosmos-2251-debris",
        "lat": -1.510477044110494,
        "lon": -147.72303570641458,
        "alt_km": 1105.6110132318336,
        "timestamp": "2025-12-26T22:28:06.180221+00:00",
        "meta_object_name": "COSMOS 2251 DEB",
        "meta_object_id": "1993-036WB",
        "meta_epoch": "2025-12-26T09:31:57.433728",
        "meta_mean_motion": 13.86070784,
        "meta_eccentricity": 0.0252543,
        "meta_inclination": 73.925,
        "meta_ra_of_asc_node": 32.7594,
        "meta_arg_of_pericenter": 333.3886,
        "meta_mean_anomaly": 41.0436,
        "meta_ephemeris_type": 0,
        "meta_classification_type": "U",
        "meta_norad_cat_id": 34589,
        "meta_element_set_no": 999,
        "meta_rev_at_epoch": 84901,
        "meta_bstar": 0.00051768,
        "meta_mean_motion_dot": 7.41e-06,
        "meta_mean_motion_ddot": 0,
        "tle_line1": "1 34589U 93036WB  25360.39719252  .00000741  00000+0  51768-3 0  9995",
        "tle_line2": "2 34589  73.9250  32.7594 0252543 333.3886  41.0436 13.86070784849016"
      },
      "geometry": {
        "type": "Point",
        "coordinates": [
          -147.72303570641458,
          -1.510477044110494
        ]
      }
    }
  ]
}